{"type": "FeatureCollection", "features": [ {"type": "Feature", "properties": {"norad_id": 66808, "name": "STARLINK-36071", "group": "last-30-days", "lat": 21.196002313206357, "lon": -132.2009104816232, "alt_km": 381.66540446646286, "timestamp": "2025-12-20T18:51:30.447155+00:00", "meta": {"OBJECT_NAME": "STARLINK-36071", "OBJECT_ID": "2025-278T", "EPOCH": "2025-12-20T14:00:03.000384", "MEAN_MOTION": 15.6206663, "ECCENTRICITY": 0.00016111, "INCLINATION": 42.9994, "RA_OF_ASC_NODE": 204.4102, "ARG_OF_PERICENTER": 252.8731, "MEAN_ANOMALY": 79.9657, "EPHEMERIS_TYPE": 0, "CLASSIFICATION_TYPE": "U", "NORAD_CAT_ID": 66808, "ELEMENT_SET_NO": 999, "REV_AT_EPOCH": 421, "BSTAR": -0.024390376, "MEAN_MOTION_DOT": -0.01936727, "MEAN_MOTION_DDOT": 0}, "tle": {"line1": "1 66808U 25278T   25354.58336806 -.01936727  00000+0 -24390-1 0  9995", "line2": "2 66808  42.9994 204.4102 0001611 252.8731  79.9657 15.62066630  4212"}}, "geometry": {"type": "Point", "coordinates": [-132.2009104816232, 21.196002313206357]}}, {"type": "Feature", "properties": {"norad_id": 66809, "name": "STARLINK-35979", "group": "last-30-days", "lat": 24.68856558968997, "lon": -127.24940447473327, "alt_km": 381.16997752722455, "timestamp": "2025-12-20T18:51:30.447165+00:00", "meta": {"OBJECT_NAME": "STARLINK-35979", "OBJECT_ID": "2025-278U", "EPOCH": "2025-12-20T14:00:03.000384", "MEAN_MOTION": 15.62070017, "ECCENTRICITY": 0.00016268, "INCLINATION": 42.9993, "RA_OF_ASC_NODE": 204.394, "ARG_OF_PERICENTER": 253.9143, "MEAN_ANOMALY": 84.6733, "EPHEMERIS_TYPE": 0, "CLASSIFICATION_TYPE": "U", "NORAD_CAT_ID": 66809, "ELEMENT_SET_NO": 999, "REV_AT_EPOCH": 421, "BSTAR": -0.024446065, "MEAN_MOTION_DOT": -0.01940863, "MEAN_MOTION_DDOT": 0}, "tle": {"line1": "1 66809U 25278U   25354.58336806 -.01940863  00000+0 -24446-1 0  9994", "line2": "2 66809  42.9993 204.3940 0001626 253.9143  84.6733 15.62070017  4218"}}, "geometry": {"type": "Point", "coordinates": [-127.24940447473327, 24.68856558968997]}}, {"type": "Feature", "properties": {"norad_id": 66810, "name": "STARLINK-36046", "group": "last-30-days", "lat": 22.37713444942726, "lon": -130.57831954810752, "alt_km": 381.5275605379711, "timestamp": "2025-12-20T18:51:30.447175+00:00", "meta": {"OBJECT_NAME": "STARLINK-36046", "OBJECT_ID": "2025-278V", "EPOCH": "2025-12-20T14:00:03.000384", "MEAN_MOTION": 15.62067435, "ECCENTRICITY": 0.0001641, "INCLINATION": 42.9994, "RA_OF_ASC_NODE": 204.4052, "ARG_OF_PERICENTER": 252.1434, "MEAN_ANOMALY": 82.6119, "EPHEMERIS_TYPE": 0, "CLASSIFICATION_TYPE": "U", "NORAD_CAT_ID": 66810, "ELEMENT_SET_NO": 999, "REV_AT_EPOCH": 399, "BSTAR": -0.024400046, "MEAN_MOTION_DOT": -0.0193748, "MEAN_MOTION_DDOT": 0}, "tle": {"line1": "1 66810U 25278V   25354.58336806 -.01937480  00000+0 -24400-1 0  9997", "line2": "2 66810  42.9994 204.4052 0001641 252.1434  82.6119 15.62067435  3997"}}, "geometry": {"type": "Point", "coordinates": [-130.57831954810752, 22.37713444942726]}}, {"type": "Feature", "properties": {"norad_id": 66811, "name": "STARLINK-36045", "group": "last-30-days", "lat": 23.541660430472625, "lon": -128.92844438325218, "alt_km": 381.3370886026951, "timestamp": "2025-12-20T18:51:30.447187+00:00", "meta": {"OBJECT_NAME": "STARLINK-36045", "OBJECT_ID": "2025-278W", "EPOCH": "2025-12-20T14:00:03.000384", "MEAN_MOTION": 15.62065888, "ECCENTRICITY": 0.00015968, "INCLINATION": 42.9996, "RA_OF_ASC_NODE": 204.4001, "ARG_OF_PERICENTER": 252.5152, "MEAN_ANOMALY": 84.1577, "EPHEMERIS_TYPE": 0, "CLASSIFICATION_TYPE": "U", "NORAD_CAT_ID": 66811, "ELEMENT_SET_NO": 999, "REV_AT_EPOCH": 421, "BSTAR": -0.024368735, "MEAN_MOTION_DOT": -0.01935152, "MEAN_MOTION_DDOT": 0}, "tle": {"line1": "1 66811U 25278W   25354.58336806 -.01935152  00000+0 -24369-1 0  9996", "line2": "2 66811  42.9996 204.4001 0001596 252.5152  84.1577 15.62065888  4215"}}, "geometry": {"type": "Point", "coordinates": [-128.92844438325218, 23.541660430472625]}}, {"type": "Feature", "properties": {"norad_id": 66812, "name": "STARLINK-36054", "group": "last-30-days", "lat": 25.816839650566134, "lon": -125.53629391016145, "alt_km": 381.00184505742345, "timestamp": "2025-12-20T18:51:30.447198+00:00", "meta": {"OBJECT_NAME": "STARLINK-36054", "OBJECT_ID": "2025-278X", "EPOCH": "2025-12-20T14:00:03.000384", "MEAN_MOTION": 15.62067012, "ECCENTRICITY": 0.00016118, "INCLINATION": 42.9996, "RA_OF_ASC_NODE": 204.3908, "ARG_OF_PERICENTER": 254.3347, "MEAN_ANOMALY": 86.1722, "EPHEMERIS_TYPE": 0, "CLASSIFICATION_TYPE": "U", "NORAD_CAT_ID": 66812, "ELEMENT_SET_NO": 999, "REV_AT_EPOCH": 421, "BSTAR": -0.02440582, "MEAN_MOTION_DOT": -0.01937834, "MEAN_MOTION_DDOT": 0}, "tle": {"line1": "1 66812U 25278X   25354.58336806 -.01937834  00000+0 -24406-1 0  9998", "line2": "2 66812  42.9996 204.3908 0001611 254.3347  86.1722 15.62067012  4210"}}, "geometry": {"type": "Point", "coordinates": [-125.53629391016145, 25.816839650566134]}}, {"type": "Feature", "properties": {"norad_id": 66813, "name": "STARLINK-36042", "group": "last-30-days", "lat": 26.924826706395045, "lon": -123.79198539292061, "alt_km": 380.8055669321484, "timestamp": "2025-12-20T18:51:30.447210+00:00", "meta": {"OBJECT_NAME": "STARLINK-36042", "OBJECT_ID": "2025-278Y", "EPOCH": "2025-12-20T14:00:03.000384", "MEAN_MOTION": 15.62066395, "ECCENTRICITY": 0.00015863, "INCLINATION": 42.9995, "RA_OF_ASC_NODE": 204.3852, "ARG_OF_PERICENTER": 256.4475, "MEAN_ANOMALY": 85.9777, "EPHEMERIS_TYPE": 0, "CLASSIFICATION_TYPE": "U", "NORAD_CAT_ID": 66813, "ELEMENT_SET_NO": 999, "REV_AT_EPOCH": 421, "BSTAR": -0.024401934, "MEAN_MOTION_DOT": -0.01937502, "MEAN_MOTION_DDOT": 0}, "tle": {"line1": "1 66813U 25278Y   25354.58336806 -.01937502  00000+0 -24402-1 0  9997", "line2": "2 66813  42.9995 204.3852 0001586 256.4475  85.9777 15.62066395  4214"}}, "geometry": {"type": "Point", "coordinates": [-123.79198539292061, 26.924826706395045]}}, {"type": "Feature", "properties": {"norad_id": 66814, "name": "STARLINK-35984", "group": "last-30-days", "lat": 33.05172533213506, "lon": -112.55796192737154, "alt_km": 380.00543717504297, "timestamp": "2025-12-20T18:51:30.447220+00:00", "meta": {"OBJECT_NAME": "STARLINK-35984", "OBJECT_ID": "2025-278Z", "EPOCH": "2025-12-20T14:00:03.000384", "MEAN_MOTION": 15.62069005, "ECCENTRICITY": 0.00016783, "INCLINATION": 42.9998, "RA_OF_ASC_NODE": 204.356, "ARG_OF_PERICENTER": 253.9031, "MEAN_ANOMALY": 100.0204, "EPHEMERIS_TYPE": 0, "CLASSIFICATION_TYPE": "U", "NORAD_CAT_ID": 66814, "ELEMENT_SET_NO": 999, "REV_AT_EPOCH": 430, "BSTAR": -0.024413948, "MEAN_MOTION_DOT": -0.01938585, "MEAN_MOTION_DDOT": 0}, "tle": {"line1": "1 66814U 25278Z   25354.58336806 -.01938585  00000+0 -24414-1 0  9993", "line2": "2 66814  42.9998 204.3560 0001678 253.9031 100.0204 15.62069005  4301"}}, "geometry": {"type": "Point", "coordinates": [-112.55796192737154, 33.05172533213506]}}, {"type": "Feature", "properties": {"norad_id": 66815, "name": "STARLINK-35985", "group": "last-30-days", "lat": 32.100681092901944, "lon": -114.52817109824048, "alt_km": 380.1452798537439, "timestamp": "2025-12-20T18:51:30.447230+00:00", "meta": {"OBJECT_NAME": "STARLINK-35985", "OBJECT_ID": "2025-278AA", "EPOCH": "2025-12-20T14:00:03.000384", "MEAN_MOTION": 15.62067456, "ECCENTRICITY": 0.00016895, "INCLINATION": 42.9996, "RA_OF_ASC_NODE": 204.3606, "ARG_OF_PERICENTER": 254.8848, "MEAN_ANOMALY": 97.1243, "EPHEMERIS_TYPE": 0, "CLASSIFICATION_TYPE": "U", "NORAD_CAT_ID": 66815, "ELEMENT_SET_NO": 999, "REV_AT_EPOCH": 430, "BSTAR": -0.024414395, "MEAN_MOTION_DOT": -0.0193852, "MEAN_MOTION_DDOT": 0}, "tle": {"line1": "1 66815U 25278AA  25354.58336806 -.01938520  00000+0 -24414-1 0  9993", "line2": "2 66815  42.9996 204.3606 0001689 254.8848  97.1243 15.62067456  4306"}}, "geometry": {"type": "Point", "coordinates": [-114.52817109824048, 32.100681092901944]}}, {"type": "Feature", "properties": {"norad_id": 66816, "name": "STARLINK-36098", "group": "last-30-days", "lat": 28.009782441304488, "lon": -122.0140945256817, "alt_km": 380.7194863541963, "timestamp": "2025-12-20T18:51:30.447242+00:00", "meta": {"OBJECT_NAME": "STARLINK-36098", "OBJECT_ID": "2025-278AB", "EPOCH": "2025-12-20T14:00:03.000384", "MEAN_MOTION": 15.62068342, "ECCENTRICITY": 0.00016923, "INCLINATION": 42.9993, "RA_OF_ASC_NODE": 204.3804, "ARG_OF_PERICENTER": 255.7599, "MEAN_ANOMALY": 88.5805, "EPHEMERIS_TYPE": 0, "CLASSIFICATION_TYPE": "U", "NORAD_CAT_ID": 66816, "ELEMENT_SET_NO": 999, "REV_AT_EPOCH": 406, "BSTAR": -0.024436821, "MEAN_MOTION_DOT": -0.01940151, "MEAN_MOTION_DDOT": 0}, "tle": {"line1": "1 66816U 25278AB  25354.58336806 -.01940151  00000+0 -24437-1 0  9992", "line2": "2 66816  42.9993 204.3804 0001692 255.7599  88.5805 15.62068342  4067"}}, "geometry": {"type": "Point", "coordinates": [-122.0140945256817, 28.009782441304488]}}, {"type": "Feature", "properties": {"norad_id": 66817, "name": "STARLINK-35995", "group": "last-30-days", "lat": 30.10869462193776, "lon": -118.34813608525029, "alt_km": 380.4164764186862, "timestamp": "2025-12-20T18:51:30.447251+00:00", "meta": {"OBJECT_NAME": "STARLINK-35995", "OBJECT_ID": "2025-278AC", "EPOCH": "2025-12-20T14:00:03.000384", "MEAN_MOTION": 15.6206858, "ECCENTRICITY": 0.00017058, "INCLINATION": 42.9992, "RA_OF_ASC_NODE": 204.3705, "ARG_OF_PERICENTER": 256.8852, "MEAN_ANOMALY": 91.2892, "EPHEMERIS_TYPE": 0, "CLASSIFICATION_TYPE": "U", "NORAD_CAT_ID": 66817, "ELEMENT_SET_NO": 999, "REV_AT_EPOCH": 421, "BSTAR": -0.024436949, "MEAN_MOTION_DOT": -0.01940186, "MEAN_MOTION_DDOT": 0}, "tle": {"line1": "1 66817U 25278AC  25354.58336806 -.01940186  00000+0 -24437-1 0  9991", "line2": "2 66817  42.9992 204.3705 0001705 256.8852  91.2892 15.62068580  4214"}}, "geometry": {"type": "Point", "coordinates": [-118.34813608525029, 30.10869462193776]}}]}